GLOBALSTAR M094 [+]     
1 39074U 13005C   23327.70566917 -.00000096  00000+0  41116-4 0  9992
2 39074  51.9937 122.1082 0001197 104.0564 256.0436 12.62269941500208
GLOBALSTAR M096 [+]     
1 39075U 13005D   23327.87729655 -.00000070  00000+0  18757-3 0  9997
2 39075  52.0046 169.6564 0001415  87.7159 272.3870 12.62266573499144
GLOBALSTAR M078 [+]     
1 39076U 13005E   23327.92992551  .00000024  00000+0  71156-3 0  9991
2 39076  51.9874 254.7818 0001353  22.4717 337.6209 12.62266007497777
GLOBALSTAR M095 [+]     
1 39077U 13005F   23327.63966490 -.00000092  00000+0  68116-4 0  9992
2 39077  51.9799 253.1466 0001407  47.0025 313.0959 12.62270905497593
GLOBALSTAR M087 [+]     
1 52888U 22064A   23327.87257235 -.00000078  00000+0  96344-4 0  9996
2 52888  51.9745 207.7820 0008975 196.0581 164.0036 13.37558777 69917
